SKYSAT-A                
1 39418U 13066C   26193.65279623  .00001555  00000+0  91024-4 0  9997
2 39418  97.3804 242.2385 0020249 222.7187 137.2471 15.13106553692338
SKYSAT-B                
1 40072U 14037D   26193.87895629  .00000641  00000+0  76424-4 0  9990
2 40072  98.3853 154.3116 0005393 179.8697 180.2520 14.88088942649783
SKYSAT-C1               
1 41601U 16040C   26192.63835800  .00005514  00000+0  15589-3 0  9991
2 41601  96.9557 223.0369 0000645 355.4804   4.6435 15.36708815561620
SKYSAT-C4               
1 41771U 16058B   26193.59115844  .00011647  00000+0  21392-3 0  9996
2 41771  96.9166 214.3113 0003375 121.6663 238.4919 15.49378795549403
SKYSAT-C5               
1 41772U 16058C   26193.66676796  .00004512  00000+0  14077-3 0  9998
2 41772  97.0459 233.1668 0002262 167.5326 192.5974 15.33697336547658
SKYSAT-C2               
1 41773U 16058D   26193.56193375  .00007920  00000+0  18376-3 0  9997
2 41773  97.0160 214.7089 0001849   5.3443 354.7825 15.42640053548965
SKYSAT-C3               
1 41774U 16058E   26193.65796787  .00015667  00000+0  24693-3 0  9990
2 41774  96.8992 223.5415 0002413 136.6705 223.4740 15.53626037550064
SKYSAT-C11              
1 42987U 17068A   26194.31653583  .00019386  00000+0  24810-3 0  9992
2 42987  97.4370 344.3152 0001074 158.8590 201.2711 15.59252022487312
SKYSAT-C10              
1 42988U 17068B   26193.91387030  .00007440  00000+0  22092-3 0  9997
2 42988  97.4529 331.0233 0001412 109.5205 250.6191 15.35089047486301
SKYSAT-C9               
1 42989U 17068C   26194.32796562  .00007895  00000+0  18594-3 0  9994
2 42989  97.4449 332.6299 0008800  50.8893 309.3135 15.42184723486788
SKYSAT-C8               
1 42990U 17068D   26193.97585181  .00007160  00000+0  19718-3 0  9993
2 42990  97.4545 330.9850 0001235 101.6418 258.4966 15.37465076486271
SKYSAT-C7               
1 42991U 17068E   26193.90517969  .00006935  00000+0  19129-3 0  9991
2 42991  97.4558 331.9045 0005900  29.1187 331.0385 15.37415204486320
SKYSAT-C6               
1 42992U 17068F   26193.97538933  .00006056  00000+0  18567-3 0  9992
2 42992  97.4595 331.8393 0005139  94.7511 265.4318 15.34147028486273
SKYSAT-C12              
1 43797U 18099AR  26194.31688011  .00011360  00000+0  20596-3 0  9992
2 43797  96.9253 216.5155 0005470  74.3752 285.8104 15.49743918425904
